{"type":"FeatureCollection","features":[{"type":"Feature","properties":{"@id":"relation/3747942","hazard":"nuclear","landuse":"quarry","name":"Beverley","operator":"Heathgate Resources Pty. Ltd.","resource":"uranium","start_date":"2001","type":"multipolygon","wikidata":"Q851630","wikipedia":"en:Beverley Uranium Mine"},"geometry":{"type":"Point","coordinates":[139.6047,-30.19198]},"id":"relation/3747942"}
,
{"type":"Feature","properties":{"@id":"relation/3747942","hazard":"nuclear","landuse":"quarry","name":"Beverley","operator":"Heathgate Resources Pty. Ltd.","resource":"uranium","start_date":"2001","type":"multipolygon","wikidata":"Q851630","wikipedia":"en:Beverley Uranium Mine"},"geometry":{"type":"Point","coordinates":[139.59316,-30.1923]},"id":"relation/3747942"}
,
{"type":"Feature","properties":{"@id":"relation/3747942","hazard":"nuclear","landuse":"quarry","name":"Beverley","operator":"Heathgate Resources Pty. Ltd.","resource":"uranium","start_date":"2001","type":"multipolygon","wikidata":"Q851630","wikipedia":"en:Beverley Uranium Mine"},"geometry":{"type":"Point","coordinates":[139.5928,-30.19064]},"id":"relation/3747942"}
,
{"type":"Feature","properties":{"@id":"relation/8714729","disused":"yes","landuse":"quarry","name":"Ancienne Carrière d'Uranium","resource":"uranium","type":"multipolygon"},"geometry":{"type":"Point","coordinates":[3.34482,43.7026]},"id":"relation/8714729"}
,
{"type":"Feature","properties":{"@id":"relation/11261981","landuse":"quarry","name":"Aricheng North Mine","resource":"uranium","type":"multipolygon"},"geometry":{"type":"Point","coordinates":[-60.28227,6.33165]},"id":"relation/11261981"}
,
{"type":"Feature","properties":{"@id":"relation/11261981","landuse":"quarry","name":"Aricheng North Mine","resource":"uranium","type":"multipolygon"},"geometry":{"type":"Point","coordinates":[-60.28597,6.33607]},"id":"relation/11261981"}
,
{"type":"Feature","properties":{"@id":"way/40797287","hazard":"nuclear","landuse":"quarry","name":"Taza Uranium Mine","name:ar":"تز اليورانيوم الألغام","name:fr":"Mine d'uranium de Taza","operator":"Somair","quarry":"uranium","resource":"uranium","start_date":"1965","wikipedia":"en:Arlit"},"geometry":{"type":"Point","coordinates":[7.30953,18.74743]},"id":"way/40797287"}
,
{"type":"Feature","properties":{"@id":"way/46146331","landuse":"quarry","name":"Глубокий карьер (уран.)","name:de":"Glubokiy Uranmine","name:en":"Glubokiy uranium mine","name:ru":"Глубокий карьер (уран.)","operator":"ARMZ","resource":"uranium"},"geometry":{"type":"Point","coordinates":[118.17701,50.05496]},"id":"way/46146331"}
,
{"type":"Feature","properties":{"@id":"way/59961923","alt_name":"Rossing Uranium Mine","landuse":"quarry","man_made":"surface_mine","name":"Rössing Uranium Mine","operator":"China National Uranium Corporation","resource":"uranium","start_date":"1976","wikipedia":"en:Rössing uranium mine"},"geometry":{"type":"Point","coordinates":[15.03004,-22.45586]},"id":"way/59961923"}
,
{"type":"Feature","properties":{"@id":"way/61243104","landuse":"quarry","resource":"uranium","source":"Yahoo"},"geometry":{"type":"Point","coordinates":[114.35387,49.1051]},"id":"way/61243104"}
,
{"type":"Feature","properties":{"@id":"way/102135295","landuse":"quarry","name":"Ranger Uranium Mine","name:de":"Ranger-Uran-Mine","operator":"Energy Resources of Australia Limited (ERA)","quarry":"uranium","resource":"uranium","start_date":"1980","wikidata":"Q1413953","wikipedia":"en:Ranger Uranium Mine"},"geometry":{"type":"Point","coordinates":[132.91133,-12.68663]},"id":"way/102135295"}
,
{"type":"Feature","properties":{"@id":"way/117569290","landuse":"quarry","name":"Rabbit Lake Mine","operator":"Cameco","resource":"uranium","start_date":"1975","wikipedia":"en:Rabbit Lake mine"},"geometry":{"type":"Point","coordinates":[-103.71334,58.1982]},"id":"way/117569290"}
,
{"type":"Feature","properties":{"@id":"way/119489961","landuse":"quarry","layer":"-1","name":"Sierra Pintada - Mina de Uranio","resource":"uranium","wikipedia":"es:Sierra Pintada"},"geometry":{"type":"Point","coordinates":[-68.60582,-34.652]},"id":"way/119489961"}
,
{"type":"Feature","properties":{"@id":"way/124105490","CLC:code":"131","CLC:year":"2006","landuse":"quarry","name":"Бивш уранов рудник Елешница","name:bg":"Бивш уранов рудник Елешница","name:en":"Former uranium mine Eleshnitsa","resource":"uranium","source":"Union européenne - SOeS, CORINE Land Cover, 2006."},"geometry":{"type":"Point","coordinates":[23.62975,41.86163]},"id":"way/124105490"}
,
{"type":"Feature","properties":{"@id":"way/124105636","CLC:code":"131","CLC:year":"2006","landuse":"quarry","name":"Бивш уранов рудник Елешница","name:bg":"Бивш уранов рудник Елешница","name:en":"Former uranium mine Eleshnitsa","resource":"uranium","source":"Union européenne - SOeS, CORINE Land Cover, 2006."},"geometry":{"type":"Point","coordinates":[23.64106,41.85834]},"id":"way/124105636"}
,
{"type":"Feature","properties":{"@id":"way/124105798","CLC:code":"131","CLC:year":"2006","landuse":"quarry","name":"Бивш уранов рудник Барутин","name:bg":"Бивш уранов рудник Барутин","name:en":"Former uranium mine Barutin","resource":"uranium","source":"Union européenne - SOeS, CORINE Land Cover, 2006."},"geometry":{"type":"Point","coordinates":[24.15448,41.59004]},"id":"way/124105798"}
,
{"type":"Feature","properties":{"@id":"way/172595416","disused":"yes","landuse":"quarry","name":"Mary Kathleen Open Cut","name:de":"Mary Kathleen","resource":"uranium","source":"bing","wikidata":"Q1383973"},"geometry":{"type":"Point","coordinates":[140.01268,-20.7461]},"id":"way/172595416"}
,
{"type":"Feature","properties":{"@id":"way/180869931","landuse":"quarry","resource":"uranium"},"geometry":{"type":"Point","coordinates":[45.00257,-18.34618]},"id":"way/180869931"}
,
{"type":"Feature","properties":{"@id":"way/181176409","landuse":"quarry","name":"Sunchon Uranium Mine","resource":"uranium"},"geometry":{"type":"Point","coordinates":[126.05098,39.4627]},"id":"way/181176409"}
,
{"type":"Feature","properties":{"@id":"way/185742292","landuse":"quarry","name":"McArthur River Mine","operator":"Cameco;Areva","resource":"uranium","start_date":"1980","wikipedia":"en:McArthur River uranium mine"},"geometry":{"type":"Point","coordinates":[-105.05598,57.76244]},"id":"way/185742292"}
,
{"type":"Feature","properties":{"@id":"way/185743051","hazard":"nuclear","landuse":"quarry","name":"McLean Uranium Mine","operator":"Areva;Denison Mine","resource":"uranium","start_date":"1999","wikipedia":"en:McClean Lake mine"},"geometry":{"type":"Point","coordinates":[-103.79512,58.26834]},"id":"way/185743051"}
,
{"type":"Feature","properties":{"@id":"way/185835016","landuse":"quarry","name":"Olympic Dam Mines","name:de":"Olympic Dam","operator":"BHP Billiton","quarry":"uranium","resource":"uranium","start_date":"1988","wikidata":"Q1473809"},"geometry":{"type":"Point","coordinates":[136.89455,-30.44559]},"id":"way/185835016"}
,
{"type":"Feature","properties":{"@id":"way/188896310","landuse":"quarry","name":"L'uranium d'Ambindandrakemba","resource":"uranium"},"geometry":{"type":"Point","coordinates":[46.50757,-24.56301]},"id":"way/188896310"}
,
{"type":"Feature","properties":{"@id":"way/210862328","hazard":"nuclear","landuse":"quarry","name":"Akouta uranium mine","operator":"Cominak","quarry":"uranium","resource":"uranium","start_date":"1967","wikipedia":"en:Arlit"},"geometry":{"type":"Point","coordinates":[7.30029,18.67399]},"id":"way/210862328"}
,
{"type":"Feature","properties":{"@id":"way/211195669","landuse":"quarry","name":"Akola uranium mine","operator":"Cominak","quarry":"uranium","resource":"uranium"},"geometry":{"type":"Point","coordinates":[7.29744,18.69341]},"id":"way/211195669"}
,
{"type":"Feature","properties":{"@id":"way/211195670","hazard":"nuclear","landuse":"quarry","name":"Arlit Uranium Mine","name:ar":"أرليت اليورانيوم الألغام","operator":"Somair","quarry":"uranium","resource":"uranium","start_date":"1971","wikipedia":"en:Arlit"},"geometry":{"type":"Point","coordinates":[7.32774,18.77403]},"id":"way/211195670"}
,
{"type":"Feature","properties":{"@id":"way/211419999","alt_name":"Rossing Uranium Mine","landuse":"quarry","man_made":"surface_mine","name":"Rössing Uranium Mine","operator":"China National Uranium Corporation","resource":"uranium","start_date":"1976","wikipedia":"en:Rössing uranium mine"},"geometry":{"type":"Point","coordinates":[15.06209,-22.47962]},"id":"way/211419999"}
,
{"type":"Feature","properties":{"@id":"way/212081326","landuse":"quarry","name":"Crow Butte","operator":"Cameco Inc.","resource":"uranium","start_date":"1991","wikidata":"Q5189072","wikipedia":"en:Crow Butte"},"geometry":{"type":"Point","coordinates":[-103.34989,42.64114]},"id":"way/212081326"}
,
{"type":"Feature","properties":{"@id":"way/212081331","landuse":"quarry","name":"Smith Ranch-Highland uranium mine","operator":"Cameco Inc.","resource":"uranium","start_date":"1972","wikipedia":"en:Smith Ranch-Highland"},"geometry":{"type":"Point","coordinates":[-105.7016,43.0564]},"id":"way/212081331"}
,
{"type":"Feature","properties":{"@id":"way/212491528","landuse":"quarry","operator":"INB","resource":"uranium","wikidata":"Q19951134"},"geometry":{"type":"Point","coordinates":[-42.29025,-13.83342]},"id":"way/212491528"}
,
{"type":"Feature","properties":{"@id":"way/224364151","landuse":"quarry","layer":"-1","name":"Cerro Solo - Mina de Uranio","resource":"uranium","wikipedia":"es:Sierra Pintada"},"geometry":{"type":"Point","coordinates":[-70.59868,-44.84655]},"id":"way/224364151"}
,
{"type":"Feature","properties":{"@id":"way/224369653","landuse":"quarry","resource":"uranium"},"geometry":{"type":"Point","coordinates":[51.47308,43.67556]},"id":"way/224369653"}
,
{"type":"Feature","properties":{"@id":"way/246165135","landuse":"quarry","quarry":"uranium","resource":"uranium"},"geometry":{"type":"Point","coordinates":[7.45762,18.10667]},"id":"way/246165135"}
,
{"type":"Feature","properties":{"@id":"way/282296793","hazard":"nuclear","landuse":"quarry","name":"Honeymoon Uranium Mine","name:de":"Honeymoon-Uran-Mine","operator":"JSC Atomenergoprom","resource":"uranium","start_date":"2011","wikidata":"Q1626869","wikipedia":"en:Honeymoon Mine"},"geometry":{"type":"Point","coordinates":[140.66233,-31.74364]},"id":"way/282296793"}
,
{"type":"Feature","properties":{"@id":"way/282296794","landuse":"quarry","name":"Kintyre uranium deposit","name:de":"Kintyre","resource":"uranium","wikidata":"Q1492046"},"geometry":{"type":"Point","coordinates":[122.07384,-22.33763]},"id":"way/282296794"}
,
{"type":"Feature","properties":{"@id":"way/282296795","landuse":"quarry","name":"Rum Jungle","name:de":"Rum Jungle","resource":"uranium","wikidata":"Q2175585","wikipedia":"en:Rum Jungle, Northern Territory"},"geometry":{"type":"Point","coordinates":[130.99296,-12.99591]},"id":"way/282296795"}
,
{"type":"Feature","properties":{"@id":"way/282949462","alt_name":"Saelices El Chico","disused":"yes","end_date":"2000","landuse":"quarry","name":"Mina Fé","operator":"ENUSA","resource":"uranium","source":"ENRESA","start_date":"1954"},"geometry":{"type":"Point","coordinates":[-6.61861,40.64413]},"id":"way/282949462"}
,
{"type":"Feature","properties":{"@id":"way/294341673","landuse":"quarry","name":"Ancienne mine d'uranium des bondons","resource":"uranium"},"geometry":{"type":"Point","coordinates":[3.62892,44.37936]},"id":"way/294341673"}
,
{"type":"Feature","properties":{"@id":"way/295484513","end_date":"2002","hazard":"nuclear","landuse":"quarry","name":"Cluff Lake mine","operator":"Areva","resource":"uranium","start_date":"1980","wikipedia":"en:Cluff Lake mine"},"geometry":{"type":"Point","coordinates":[-109.61277,58.35407]},"id":"way/295484513"}
,
{"type":"Feature","properties":{"@id":"way/295487987","end_date":"1997","hazard":"nuclear","landuse":"quarry","name":"Key Lake Mine","operator":"Cameco;Areva","resource":"uranium","start_date":"1983","wikipedia":"en:Key Lake mine"},"geometry":{"type":"Point","coordinates":[-105.65131,57.20764]},"id":"way/295487987"}
,
{"type":"Feature","properties":{"@id":"way/315316576","alt_name":"Husab Uranium Project","barrier":"fence","landuse":"quarry","name":"Husab Uranium Mine","operator":"China General Nuclear Power Group (CGN)","resource":"uranium","wikipedia":"en:Husab Mine"},"geometry":{"type":"Point","coordinates":[15.0145,-22.6128]},"id":"way/315316576"}
,
{"type":"Feature","properties":{"@id":"way/355743046","landuse":"quarry","name":"Бивш уранов рудник Бялата вода","name:bg":"Бивш уранов рудник Бялата вода","name:en":"Former uranium mine Biyalata voda","resource":"uranium"},"geometry":{"type":"Point","coordinates":[23.6878,42.39083]},"id":"way/355743046"}
,
{"type":"Feature","properties":{"@id":"way/384630969","landuse":"quarry","name":"Учкудукское урановое месторождение","resource":"uranium"},"geometry":{"type":"Point","coordinates":[63.6243,42.1354]},"id":"way/384630969"}
,
{"type":"Feature","properties":{"@id":"way/524655433","landuse":"quarry","name":"Бивш уранов рудник Пробойница","name:bg":"Бивш уранов рудник Пробойница","name:en":"Former uranium mine Proboynitsa","resource":"uranium"},"geometry":{"type":"Point","coordinates":[23.32374,43.08926]},"id":"way/524655433"}
,
{"type":"Feature","properties":{"@id":"way/524655439","landuse":"quarry","name":"Бивш уранов рудник Пробойница","name:bg":"Бивш уранов рудник Пробойница","name:en":"Former uranium mine","resource":"uranium"},"geometry":{"type":"Point","coordinates":[23.33086,43.08925]},"id":"way/524655439"}
,
{"type":"Feature","properties":{"@id":"way/576457143","begin":"2009","landuse":"quarry","name":"Imouraren Uranium Mine","operator":"Areva, SOPAMIN, Kepco","quarry":"uranium","resource":"uranium","wikipedia:fr":"Mine_d'uranium_d'Imouraren"},"geometry":{"type":"Point","coordinates":[7.30856,18.08847]},"id":"way/576457143"}
,
{"type":"Feature","properties":{"@id":"way/579784519","landuse":"quarry","name":"Бивш уранов рудник Курило","name:bg":"Бивш уранов рудник Курило","name:en":"Former uranium mine Kurilo","resource":"uranium"},"geometry":{"type":"Point","coordinates":[23.34614,42.85224]},"id":"way/579784519"}
,
{"type":"Feature","properties":{"@id":"way/579887286","landuse":"quarry","name":"Бивш уранов рудник Габра","name:bg":"Бивш уранов рудник Габра","name:en":"Former uranium mine Gabra","resource":"uranium"},"geometry":{"type":"Point","coordinates":[23.61093,42.55493]},"id":"way/579887286"}
,
{"type":"Feature","properties":{"@id":"way/584763629","landuse":"quarry","name":"Бивш уранов рудник Сборище","name:bg":"Бивш уранов рудник Сборище","name:en":"Former uranium mine Sborishte","resource":"uranium"},"geometry":{"type":"Point","coordinates":[25.9903,42.69341]},"id":"way/584763629"}
,
{"type":"Feature","properties":{"@id":"way/722998005","landuse":"quarry","name":"Бивш уранов рудник Белозем","name:bg":"Бивш уранов рудник Белозем","name:en":"Former uranium mine Belozem","resource":"uranium"},"geometry":{"type":"Point","coordinates":[25.04711,42.17804]},"id":"way/722998005"}
,
{"type":"Feature","properties":{"@id":"way/723042415","landuse":"quarry","name":"Бивш уранов рудник Бухово","name:bg":"Бивш уранов рудник Бухово","name:en":"Former uranium mine Buhovo","resource":"uranium"},"geometry":{"type":"Point","coordinates":[23.55113,42.80603]},"id":"way/723042415"}
,
{"type":"Feature","properties":{"@id":"way/763036910","disused":"yes","landuse":"quarry","resource":"uranium"},"geometry":{"type":"Point","coordinates":[74.52761,44.61862]},"id":"way/763036910"}
,
{"type":"Feature","properties":{"@id":"way/764110999","abandoned:landuse":"industrial","landuse":"quarry","resource":"uranium"},"geometry":{"type":"Point","coordinates":[73.57959,44.69983]},"id":"way/764110999"}
,
{"type":"Feature","properties":{"@id":"way/764111000","abandoned:landuse":"industrial","landuse":"quarry","resource":"uranium"},"geometry":{"type":"Point","coordinates":[73.68836,44.69177]},"id":"way/764111000"}
,
{"type":"Feature","properties":{"@id":"way/764111001","abandoned:landuse":"industrial","landuse":"quarry","resource":"uranium"},"geometry":{"type":"Point","coordinates":[73.70698,44.69401]},"id":"way/764111001"}
,
{"type":"Feature","properties":{"@id":"way/821910828","landuse":"quarry","name":"Aricheng West Mine","resource":"uranium"},"geometry":{"type":"Point","coordinates":[-60.23129,6.41064]},"id":"way/821910828"}
,
{"type":"Feature","properties":{"@id":"way/888253090","landuse":"quarry","name":"Isa Khel Uranium Mill","operator":"PAEC","resource":"uranium"},"geometry":{"type":"Point","coordinates":[71.13495,32.65076]},"id":"way/888253090"}
,
{"type":"Feature","properties":{"@id":"way/897486478","landuse":"quarry","name":"Husab Uranium Mine","resource":"uranium"},"geometry":{"type":"Point","coordinates":[15.05997,-22.55317]},"id":"way/897486478"}
,
{"type":"Feature","properties":{"@id":"way/897487459","landuse":"quarry","name":"Husab Uranium Mine","resource":"uranium"},"geometry":{"type":"Point","coordinates":[15.05598,-22.57528]},"id":"way/897487459"}
,
{"type":"Feature","properties":{"@id":"way/897637759","landuse":"quarry","name":"Imouraren  Uranium Mine","operator":"Areva, SOPAMIN, Kepco","resource":"uranium"},"geometry":{"type":"Point","coordinates":[7.36383,18.08017]},"id":"way/897637759"}
,
{"type":"Feature","properties":{"@id":"way/897637760","landuse":"quarry","name":"Imouraren  Uranium Mine","operator":"Areva, SOPAMIN, Kepco","resource":"uranium"},"geometry":{"type":"Point","coordinates":[7.34517,18.07806]},"id":"way/897637760"}]}