{"type":"FeatureCollection","features":[{"type":"Feature","properties":{"@id":"relation/4097948","landuse":"quarry","operator":"Полтавський ГЗК","resource":"iron_ore","type":"multipolygon"},"geometry":{"type":"Point","coordinates":[33.65713,49.05298]},"id":"relation/4097948"}
,
{"type":"Feature","properties":{"@id":"relation/4791478","landuse":"quarry","name":"Mine de Simandou","operator":"Rio Tinto","resource":"iron_ore","type":"multipolygon"},"geometry":{"type":"Point","coordinates":[-8.89715,8.51763]},"id":"relation/4791478"}
,
{"type":"Feature","properties":{"@id":"relation/4791478","landuse":"quarry","name":"Mine de Simandou","operator":"Rio Tinto","resource":"iron_ore","type":"multipolygon"},"geometry":{"type":"Point","coordinates":[-8.90353,8.53732]},"id":"relation/4791478"}
,
{"type":"Feature","properties":{"@id":"relation/5663490","landuse":"quarry","name":"Cava da Mina de Fábrica Nova","resource":"iron_ore","type":"multipolygon"},"geometry":{"type":"Point","coordinates":[-43.44269,-20.20116]},"id":"relation/5663490"}
,
{"type":"Feature","properties":{"@id":"relation/8780665","landuse":"quarry","resource":"iron_ore","type":"multipolygon"},"geometry":{"type":"Point","coordinates":[-92.54363,47.49025]},"id":"relation/8780665"}
,
{"type":"Feature","properties":{"@id":"relation/9181620","intermittent":"yes","landuse":"quarry","resource":"iron_ore","type":"multipolygon"},"geometry":{"type":"Point","coordinates":[32.67641,34.91673]},"id":"relation/9181620"}
,
{"type":"Feature","properties":{"@id":"relation/9181620","intermittent":"yes","landuse":"quarry","resource":"iron_ore","type":"multipolygon"},"geometry":{"type":"Point","coordinates":[32.67615,34.9172]},"id":"relation/9181620"}
,
{"type":"Feature","properties":{"@id":"relation/9181620","intermittent":"yes","landuse":"quarry","resource":"iron_ore","type":"multipolygon"},"geometry":{"type":"Point","coordinates":[32.67559,34.91924]},"id":"relation/9181620"}
,
{"type":"Feature","properties":{"@id":"relation/9181620","intermittent":"yes","landuse":"quarry","resource":"iron_ore","type":"multipolygon"},"geometry":{"type":"Point","coordinates":[32.67592,34.91761]},"id":"relation/9181620"}
,
{"type":"Feature","properties":{"@id":"relation/9839589","fixme":"limit","landuse":"quarry","name":"Mina de Ferro de Carajás","operator":"Vale S.A.","resource":"iron_ore","source":"Bing","type":"multipolygon"},"geometry":{"type":"Point","coordinates":[-50.17063,-6.05771]},"id":"relation/9839589"}
,
{"type":"Feature","properties":{"@id":"way/30386941","landuse":"quarry","name":"Sydvaranger Gruve","resource":"iron_ore","source":"Norway Orthophoto"},"geometry":{"type":"Point","coordinates":[30.0042,69.64217]},"id":"way/30386941"}
,
{"type":"Feature","properties":{"@id":"way/59532160","landuse":"quarry","name":"Iron Ore Mines","resource":"iron_ore"},"geometry":{"type":"Point","coordinates":[76.63087,15.04956]},"id":"way/59532160"}
,
{"type":"Feature","properties":{"@id":"way/84398347","landuse":"quarry","name":"Erzberg","operator":"VA Erzberg GmbH","resource":"iron_ore","source":"geoimage.at","wikidata":"Q700232","wikipedia":"de:Erzberg"},"geometry":{"type":"Point","coordinates":[14.90352,47.52708]},"id":"way/84398347"}
,
{"type":"Feature","properties":{"@id":"way/86493892","landuse":"quarry","name":"Карьер Радостный","resource":"iron_ore"},"geometry":{"type":"Point","coordinates":[59.78927,55.51871]},"id":"way/86493892"}
,
{"type":"Feature","properties":{"@id":"way/88627693","landuse":"quarry","name":"Тёйский рудник","name:en":"Toya quarry","resource":"iron_ore"},"geometry":{"type":"Point","coordinates":[89.57974,53.27681]},"id":"way/88627693"}
,
{"type":"Feature","properties":{"@id":"way/100521239","landuse":"quarry","name":"Кар'єр ЦГЗК № 1","name:ru":"Карьер ЦГОКа №1","resource":"iron_ore"},"geometry":{"type":"Point","coordinates":[33.41178,47.99283]},"id":"way/100521239"}
,
{"type":"Feature","properties":{"@id":"way/104415370",
  "url":"disused; exhausted 1989","disused:landuse":"quarry","landuse":"quarry","operator":"LAMCO","resource":"iron_ore","source":"Cnes / Spot Image 2009"},"geometry":{"type":"Point","coordinates":[-8.4971,7.5397]},"id":"way/104415370"}
,
{"type":"Feature","properties":{"@id":"way/105125029","landuse":"quarry","name":"demir işletmesi","resource":"iron_ore","source":"bing"},"geometry":{"type":"Point","coordinates":[38.12709,39.46475]},"id":"way/105125029"}
,
{"type":"Feature","properties":{"@id":"way/105125183","landuse":"quarry","name":"demir işletmesi","resource":"iron_ore","source":"bing"},"geometry":{"type":"Point","coordinates":[38.10428,39.45015]},"id":"way/105125183"}
,
{"type":"Feature","properties":{"@id":"way/105125478","landuse":"quarry","name":"demir işletmesi","resource":"iron_ore","source":"bing"},"geometry":{"type":"Point","coordinates":[38.0751,39.42232]},"id":"way/105125478"}
,
{"type":"Feature","properties":{"@id":"way/105251339","landuse":"quarry","resource":"iron_ore"},"geometry":{"type":"Point","coordinates":[76.48993,15.07808]},"id":"way/105251339"}
,
{"type":"Feature","properties":{"@id":"way/105251344","landuse":"quarry","resource":"iron_ore"},"geometry":{"type":"Point","coordinates":[76.52324,15.14022]},"id":"way/105251344"}
,
{"type":"Feature","properties":{"@id":"way/105251345","landuse":"quarry","resource":"iron_ore"},"geometry":{"type":"Point","coordinates":[76.50609,15.07551]},"id":"way/105251345"}
,
{"type":"Feature","properties":{"@id":"way/105327969","landuse":"quarry","name":"Mitsero mine","resource":"iron_ore"},"geometry":{"type":"Point","coordinates":[33.11603,35.03495]},"id":"way/105327969"}
,
{"type":"Feature","properties":{"@id":"way/110474835","description:pt":"Mina de ferro","landuse":"quarry","name":"Mina Mar Azul","operator":"Vale","resource":"iron_ore","source":"Bing"},"geometry":{"type":"Point","coordinates":[-43.95872,-20.05884]},"id":"way/110474835"}
,
{"type":"Feature","properties":{"@id":"way/113558746","landuse":"quarry","resource":"iron_ore","source":"bing"},"geometry":{"type":"Point","coordinates":[27.81636,39.81847]},"id":"way/113558746"}
,
{"type":"Feature","properties":{"@id":"way/113558779","landuse":"quarry","resource":"iron_ore","source":"bing"},"geometry":{"type":"Point","coordinates":[27.82769,39.82455]},"id":"way/113558779"}
,
{"type":"Feature","properties":{"@id":"way/113558807","landuse":"quarry","name":"Şamlı Demir İşletmesi","resource":"iron_ore","source":"bing"},"geometry":{"type":"Point","coordinates":[27.82105,39.82582]},"id":"way/113558807"}
,
{"type":"Feature","properties":{"@id":"way/119388112","landuse":"quarry","resource":"iron_ore"},"geometry":{"type":"Point","coordinates":[81.19278,18.68114]},"id":"way/119388112"}
,
{"type":"Feature","properties":{"@id":"way/119388114","landuse":"quarry","resource":"iron_ore"},"geometry":{"type":"Point","coordinates":[81.2207,18.69867]},"id":"way/119388114"}
,
{"type":"Feature","properties":{"@id":"way/119388116","landuse":"quarry","resource":"iron_ore"},"geometry":{"type":"Point","coordinates":[81.23679,18.63095]},"id":"way/119388116"}
,
{"type":"Feature","properties":{"@id":"way/136940725","landuse":"quarry","name":"Сосновский рудник","resource":"iron_ore"},"geometry":{"type":"Point","coordinates":[61.37357,55.63437]},"id":"way/136940725"}
,
{"type":"Feature","properties":{"@id":"way/144970192","landuse":"quarry","name":"Кар'єр ЦГЗКа №2","name:ru":"Карьер ЦГЗКа №2","resource":"iron_ore"},"geometry":{"type":"Point","coordinates":[33.44075,48.01688]},"id":"way/144970192"}
,
{"type":"Feature","properties":{"@id":"way/145757158","landuse":"quarry","resource":"iron_ore"},"geometry":{"type":"Point","coordinates":[-91.89645,47.67014]},"id":"way/145757158"}
,
{"type":"Feature","properties":{"@id":"way/160939021","landuse":"quarry","name":"Channar","operator":"Rio Tinto","resource":"iron_ore","wikidata":"Q291166"},"geometry":{"type":"Point","coordinates":[117.78791,-23.30233]},"id":"way/160939021"}
,
{"type":"Feature","properties":{"@id":"way/160942210","landuse":"quarry","name":"Mount Tom Price","operator":"Rio Tinto","resource":"iron_ore","wikidata":"Q6924145"},"geometry":{"type":"Point","coordinates":[117.77192,-22.76323]},"id":"way/160942210"}
,
{"type":"Feature","properties":{"@id":"way/167455712","landuse":"quarry","name":"Mount Whaleback","resource":"iron_ore","wikidata":"Q610345","wikipedia":"en:Mount Whaleback mine"},"geometry":{"type":"Point","coordinates":[119.67109,-23.35882]},"id":"way/167455712"}
,
{"type":"Feature","properties":{"@id":"way/170655100","landuse":"quarry","name":"Çetinkaya Demir İşletmesi","operator":"Demir Export","resource":"iron_ore","source":"bing"},"geometry":{"type":"Point","coordinates":[37.50712,39.20243]},"id":"way/170655100"}
,
{"type":"Feature","properties":{"@id":"way/177919725","landuse":"quarry","name":"Mine du Mont Wright","operator":"ArcelorMittal","resource":"iron_ore","wikidata":"Q3072793","wikipedia":"en:Fire Lake, Quebec"},"geometry":{"type":"Point","coordinates":[-67.34852,52.79356]},"id":"way/177919725"}
,
{"type":"Feature","properties":{"@id":"way/179704546","landuse":"quarry","name":"Skånegruvan","operator":"Luossavaara-Kiirunavaara Aktiebolag","resource":"iron_ore","source":"Bing"},"geometry":{"type":"Point","coordinates":[20.64672,67.18591]},"id":"way/179704546"}
,
{"type":"Feature","properties":{"@id":"way/179704559","landuse":"quarry","name":"Hermelinsgruvan","operator":"Luossavaara-Kiirunavaara Aktiebolag","resource":"iron_ore","source":"Bing"},"geometry":{"type":"Point","coordinates":[20.64264,67.18134]},"id":"way/179704559"}
,
{"type":"Feature","properties":{"@id":"way/192254434","landuse":"quarry","name":"Brockman 4","operator":"Rio Tinto","resource":"iron_ore","wikidata":"Q167806"},"geometry":{"type":"Point","coordinates":[117.20288,-22.59252]},"id":"way/192254434"}
,
{"type":"Feature","properties":{"@id":"way/192330327","landuse":"quarry","name":"Marandoo","name:de":"Marandoo-Mine","name:fr":"Mine de Marandoo","operator":"Rio Tinto","resource":"iron_ore","start_date":"1994-10","wikidata":"Q13221065"},"geometry":{"type":"Point","coordinates":[118.12815,-22.64181]},"id":"way/192330327"}
,
{"type":"Feature","properties":{"@id":"way/194945795","disused":"yes","landuse":"quarry","name":"Bristol Mine","resource":"iron_ore","source":"Bing"},"geometry":{"type":"Point","coordinates":[-76.33848,45.49657]},"id":"way/194945795"}
,
{"type":"Feature","properties":{"@id":"way/194949257","disused":"yes","landuse":"quarry","resource":"iron_ore","source":"Bing"},"geometry":{"type":"Point","coordinates":[-76.34525,45.49025]},"id":"way/194949257"}
,
{"type":"Feature","properties":{"@id":"way/195830684","landuse":"quarry","note":"surface mining discontinued, historical protected rock formations","resource":"iron_ore"},"geometry":{"type":"Point","coordinates":[20.18417,67.82052]},"id":"way/195830684"}
,
{"type":"Feature","properties":{"@id":"way/195830685","landuse":"quarry","note":"surface mining discontinued, historical protected rock formations","resource":"iron_ore"},"geometry":{"type":"Point","coordinates":[20.19746,67.84438]},"id":"way/195830685"}
,
{"type":"Feature","properties":{"@id":"way/198100619","landuse":"quarry","name":"Vitåforsgruvan","operator":"Luossavaara-Kiirunavaara Aktiebolag","resource":"iron_ore","source":"bing"},"geometry":{"type":"Point","coordinates":[20.71159,67.19728]},"id":"way/198100619"}
,
{"type":"Feature","properties":{"@id":"way/199350235","landuse":"quarry","resource":"iron_ore"},"geometry":{"type":"Point","coordinates":[-12.68533,22.67336]},"id":"way/199350235"}
,
{"type":"Feature","properties":{"@id":"way/199995355","landuse":"quarry","name":"الزويرات","name:ar":"الزويرات","name:fr":"Zouérate","resource":"iron_ore"},"geometry":{"type":"Point","coordinates":[-12.47071,22.68839]},"id":"way/199995355"}
,
{"type":"Feature","properties":{"@id":"way/200953374","landuse":"quarry","name":"Mina Marcona","resource":"iron_ore"},"geometry":{"type":"Point","coordinates":[-75.119,-15.20651]},"id":"way/200953374"}
,
{"type":"Feature","properties":{"@id":"way/209764469","landuse":"quarry","name":"Ископ Жван","operator":"АД Рудник Демир Хисар - Сопотница","resource":"iron_ore"},"geometry":{"type":"Point","coordinates":[21.13606,41.27544]},"id":"way/209764469"}
,
{"type":"Feature","properties":{"@id":"way/217967153","landuse":"quarry","resource":"iron_ore"},"geometry":{"type":"Point","coordinates":[110.99889,41.35301]},"id":"way/217967153"}
,
{"type":"Feature","properties":{"@id":"way/221227610","landuse":"quarry","resource":"iron_ore","source":"bing"},"geometry":{"type":"Point","coordinates":[38.00239,38.90825]},"id":"way/221227610"}
,
{"type":"Feature","properties":{"@id":"way/221227611","landuse":"quarry","resource":"iron_ore","source":"bing"},"geometry":{"type":"Point","coordinates":[37.9784,38.90663]},"id":"way/221227611"}
,
{"type":"Feature","properties":{"@id":"way/239323160","landuse":"quarry","resource":"iron_ore"},"geometry":{"type":"Point","coordinates":[62.93281,53.3765]},"id":"way/239323160"}
,
{"type":"Feature","properties":{"@id":"way/257525905","landuse":"quarry","man_made":"mineshaft","name":"海南铁矿枫树下矿区","name:zh":"海南铁矿枫树下矿区","resource":"iron_ore","source:name":"GNS"},"geometry":{"type":"Point","coordinates":[109.04743,19.21368]},"id":"way/257525905"}
,
{"type":"Feature","properties":{"@id":"way/270052407","landuse":"quarry","name":"demir maden ocağı","operator":"Demir Export Limited Şirketi","resource":"iron_ore","source":"bing"},"geometry":{"type":"Point","coordinates":[37.28002,38.86256]},"id":"way/270052407"}
,
{"type":"Feature","properties":{"@id":"way/270610279","landuse":"quarry","name":"Elkondu Demir İşletmesi","resource":"iron_ore","source":"bing"},"geometry":{"type":"Point","coordinates":[37.69755,39.22907]},"id":"way/270610279"}
,
{"type":"Feature","properties":{"@id":"way/271454824","landuse":"quarry","name":"Küçük Eğmir Demir İşletmesi","resource":"iron_ore","source":"bing"},"geometry":{"type":"Point","coordinates":[27.24292,39.59829]},"id":"way/271454824"}
,
{"type":"Feature","properties":{"@id":"way/275355917","description:pt":"Mina de ferro","landuse":"quarry","name":"Mina de Capão Xavier","resource":"iron_ore","source":"Bing","source_1":"http://wiki.openstreetmap.org/wiki/Key:resource"},"geometry":{"type":"Point","coordinates":[-43.97804,-20.05065]},"id":"way/275355917"}
,
{"type":"Feature","properties":{"@id":"way/279301754","landuse":"quarry","man_made":"adit","resource":"iron_ore"},"geometry":{"type":"Point","coordinates":[-102.36532,18.06528]},"id":"way/279301754"}
,
{"type":"Feature","properties":{"@id":"way/286683185","disused":"yes","headframe":"yes","landuse":"quarry","man_made":"mineshaft","name":"Coto Vivaldi","resource":"iron_ore"},"geometry":{"type":"Point","coordinates":[-6.52044,42.59331]},"id":"way/286683185"}
,
{"type":"Feature","properties":{"@id":"way/287490552","disused":"yes","headframe":"yes","landuse":"quarry","man_made":"mineshaft","name":"Coto Vivaldi","resource":"iron_ore"},"geometry":{"type":"Point","coordinates":[-6.51882,42.59409]},"id":"way/287490552"}
,
{"type":"Feature","properties":{"@id":"way/297313370","landuse":"quarry","resource":"iron_ore"},"geometry":{"type":"Point","coordinates":[-10.28374,6.80978]},"id":"way/297313370"}
,
{"type":"Feature","properties":{"@id":"way/297642253","alt_name":"Tokade","landuse":"quarry","name":"Tokadeh","operator":"ArcelorMittal","resource":"iron_ore"},"geometry":{"type":"Point","coordinates":[-8.67122,7.45271]},"id":"way/297642253"}
,
{"type":"Feature","properties":{"@id":"way/307934062","landuse":"quarry","name":"Mine de Nimba","operator":"West Africa Exploration","resource":"iron_ore"},"geometry":{"type":"Point","coordinates":[-8.37903,7.67659]},"id":"way/307934062"}
,
{"type":"Feature","properties":{"@id":"way/315221699","landuse":"quarry","name":"Mina Capitão do Mato","resource":"iron_ore","source":"Bing"},"geometry":{"type":"Point","coordinates":[-43.92342,-20.11862]},"id":"way/315221699"}
,
{"type":"Feature","properties":{"@id":"way/315221702","landuse":"quarry","name":"Cava da Mina Abóboras","note":"Parte do Complexo Vargem Grande","operator":"Vale","resource":"iron_ore","source":"Bing"},"geometry":{"type":"Point","coordinates":[-43.87844,-20.15282]},"id":"way/315221702"}
,
{"type":"Feature","properties":{"@id":"way/320046372","landuse":"quarry","name":"Solomon Hub","operator":"Fortescue Metals Group","resource":"iron_ore","source":"Bing"},"geometry":{"type":"Point","coordinates":[117.86964,-22.1278]},"id":"way/320046372"}
,
{"type":"Feature","properties":{"@id":"way/330529725","landuse":"quarry","resource":"iron_ore","source":"bing"},"geometry":{"type":"Point","coordinates":[37.97003,38.9049]},"id":"way/330529725"}
,
{"type":"Feature","properties":{"@id":"way/350542822","landuse":"quarry","resource":"iron_ore"},"geometry":{"type":"Point","coordinates":[111.03351,41.39908]},"id":"way/350542822"}
,
{"type":"Feature","properties":{"@id":"way/370169843","landuse":"quarry","name":"Carrière des Minerais de Fer","resource":"iron_ore"},"geometry":{"type":"Point","coordinates":[8.12461,35.95895]},"id":"way/370169843"}
,
{"type":"Feature","properties":{"@id":"way/370169844","landuse":"quarry","name":"Carrière des Minerais de Fer","resource":"iron_ore"},"geometry":{"type":"Point","coordinates":[8.09869,35.94403]},"id":"way/370169844"}
,
{"type":"Feature","properties":{"@id":"way/379239342","landuse":"quarry","name":"Mina do Germano","note":"Mina a céu aberto","resource":"iron_ore"},"geometry":{"type":"Point","coordinates":[-43.51304,-20.20854]},"id":"way/379239342"}
,
{"type":"Feature","properties":{"@id":"way/379239345","landuse":"quarry","name":"Mina da Alegria","operator":"Vale","resource":"iron_ore"},"geometry":{"type":"Point","coordinates":[-43.50648,-20.16192]},"id":"way/379239345"}
,
{"type":"Feature","properties":{"@id":"way/379732018","landuse":"quarry","resource":"iron_ore"},"geometry":{"type":"Point","coordinates":[-43.50926,-20.27647]},"id":"way/379732018"}
,
{"type":"Feature","properties":{"@id":"way/379732019","landuse":"quarry","resource":"iron_ore"},"geometry":{"type":"Point","coordinates":[-43.5057,-20.2811]},"id":"way/379732019"}
,
{"type":"Feature","properties":{"@id":"way/379734994","depth":"6m","historic":"mine","landuse":"quarry","name":"Gruben","resource":"iron_ore"},"geometry":{"type":"Point","coordinates":[10.48286,59.93806]},"id":"way/379734994"}
,
{"type":"Feature","properties":{"@id":"way/380315421","landuse":"quarry","name":"Cava da Mina Conceição","resource":"iron_ore"},"geometry":{"type":"Point","coordinates":[-43.27389,-19.65981]},"id":"way/380315421"}
,
{"type":"Feature","properties":{"@id":"way/380319332","landuse":"quarry","name":"Cava da Mina de Brucutu","operator":"Vale","resource":"iron_ore"},"geometry":{"type":"Point","coordinates":[-43.37995,-19.85979]},"id":"way/380319332"}
,
{"type":"Feature","properties":{"@id":"way/380319993","landuse":"quarry","name":"Cava da Mina de Água Limpa","operator":"Vale","resource":"iron_ore"},"geometry":{"type":"Point","coordinates":[-43.23799,-19.94606]},"id":"way/380319993"}
,
{"type":"Feature","properties":{"@id":"way/380322148","disused":"yes","landuse":"quarry","name":"Cava da Mina de Capanema","operator":"Vale","resource":"iron_ore","source":"Bing"},"geometry":{"type":"Point","coordinates":[-43.61474,-20.19068]},"id":"way/380322148"}
,
{"type":"Feature","properties":{"@id":"way/380458248","landuse":"quarry","name":"Cava da Mina de Gongo Soco","operator":"Vale","resource":"iron_ore","source":"Bing"},"geometry":{"type":"Point","coordinates":[-43.59817,-19.95825]},"id":"way/380458248"}
,
{"type":"Feature","properties":{"@id":"way/380458250","landuse":"quarry","resource":"iron_ore","source":"Bing"},"geometry":{"type":"Point","coordinates":[-43.57919,-19.96978]},"id":"way/380458250"}
,
{"type":"Feature","properties":{"@id":"way/385316087","landuse":"quarry","resource":"iron_ore"},"geometry":{"type":"Point","coordinates":[116.76297,-29.181]},"id":"way/385316087"}
,
{"type":"Feature","properties":{"@id":"way/390566417","landuse":"quarry","name":"Mt Webber","operator":"Atlas Iron","resource":"iron_ore","website":"http://www.atlasiron.com.au/site/our-business/current-operations/mt-webber1"},"geometry":{"type":"Point","coordinates":[119.2838,-21.53874]},"id":"way/390566417"}
,
{"type":"Feature","properties":{"@id":"way/391438666","landuse":"quarry","name":"Mineração Trindade","resource":"iron_ore","source":"Bing"},"geometry":{"type":"Point","coordinates":[-43.79177,-19.86107]},"id":"way/391438666"}
,
{"type":"Feature","properties":{"@id":"way/395064676","depth":"50","landuse":"quarry","name":"Mina de Ferro","operator":"Vale","resource":"iron_ore"},"geometry":{"type":"Point","coordinates":[-42.45105,-14.2025]},"id":"way/395064676"}
,
{"type":"Feature","properties":{"@id":"way/398375307","landuse":"quarry","name":"Куржункуль","resource":"iron_ore"},"geometry":{"type":"Point","coordinates":[62.75789,52.53897]},"id":"way/398375307"}
,
{"type":"Feature","properties":{"@id":"way/400827111","landuse":"quarry","resource":"iron_ore"},"geometry":{"type":"Point","coordinates":[-12.32761,22.87807]},"id":"way/400827111"}
,
{"type":"Feature","properties":{"@id":"way/420494928","disused":"yes","landuse":"quarry","name":"Sparregruvan","operator":"Luossavaara-Kiirunavaara Aktiebolag","resource":"iron_ore"},"geometry":{"type":"Point","coordinates":[20.59326,67.18046]},"id":"way/420494928"}
,
{"type":"Feature","properties":{"@id":"way/420518908","disused":"yes","landuse":"quarry","name":"Välkommagruvorna","operator":"Luossavaara-Kiirunavaara Aktiebolag","resource":"iron_ore"},"geometry":{"type":"Point","coordinates":[20.61623,67.18293]},"id":"way/420518908"}
,
{"type":"Feature","properties":{"@id":"way/420518909","disused":"yes","landuse":"quarry","name":"Välkommagruvorna","operator":"Luossavaara-Kiirunavaara Aktiebolag","resource":"iron_ore"},"geometry":{"type":"Point","coordinates":[20.60574,67.18218]},"id":"way/420518909"}
,
{"type":"Feature","properties":{"@id":"way/420518910","disused":"yes","landuse":"quarry","name":"Välkommagruvorna","operator":"Luossavaara-Kiirunavaara Aktiebolag","resource":"iron_ore"},"geometry":{"type":"Point","coordinates":[20.62542,67.17934]},"id":"way/420518910"}
,
{"type":"Feature","properties":{"@id":"way/420518911","disused":"yes","landuse":"quarry","name":"Välkommagruvorna","operator":"Luossavaara-Kiirunavaara Aktiebolag","resource":"iron_ore"},"geometry":{"type":"Point","coordinates":[20.60582,67.18414]},"id":"way/420518911"}
,
{"type":"Feature","properties":{"@id":"way/420696820","landuse":"quarry","name":"Denevitzgruvan","operator":"Luossavaara-Kiirunavaara Aktiebolag","resource":"iron_ore","source":"bing"},"geometry":{"type":"Point","coordinates":[20.69943,67.18718]},"id":"way/420696820"}
,
{"type":"Feature","properties":{"@id":"way/429853138","landuse":"quarry","name":"معدن سنگ آهن سرخ فام سید احمد","operator":"شرکت پارسیان نگار هرمز","phone":"+989128702184","resource":"iron_ore"},"geometry":{"type":"Point","coordinates":[55.99674,27.94035]},"id":"way/429853138"}
,
{"type":"Feature","properties":{"@id":"way/437417558","landuse":"quarry","name":"Paraburdoo","operator":"Rio Tinto","resource":"iron_ore","wikidata":"Q7133756"},"geometry":{"type":"Point","coordinates":[117.60596,-23.23399]},"id":"way/437417558"}
,
{"type":"Feature","properties":{"@id":"way/438422423","landuse":"quarry","resource":"iron_ore"},"geometry":{"type":"Point","coordinates":[0.10903,40.14039]},"id":"way/438422423"}
,
{"type":"Feature","properties":{"@id":"way/438422424","landuse":"quarry","resource":"iron_ore"},"geometry":{"type":"Point","coordinates":[0.11107,40.14001]},"id":"way/438422424"}
,
{"type":"Feature","properties":{"@id":"way/438422425","landuse":"quarry","resource":"iron_ore"},"geometry":{"type":"Point","coordinates":[0.11026,40.13972]},"id":"way/438422425"}
,
{"type":"Feature","properties":{"@id":"way/481121475","landuse":"quarry","man_made":"mineshaft","mineshaft_type":"winding","name":"Mina de Hierro Abandonada La Chapa","operator":"Acerías Paz del Río","resource":"iron_ore"},"geometry":{"type":"Point","coordinates":[-72.75911,5.94659]},"id":"way/481121475"}
,
{"type":"Feature","properties":{"@id":"way/485000600","landuse":"quarry","name":"Mina Ventador","operator":"Bahia Mineração","resource":"iron_ore"},"geometry":{"type":"Point","coordinates":[-42.53976,-14.3408]},"id":"way/485000600"}
,
{"type":"Feature","properties":{"@id":"way/485000608","landuse":"quarry","operator":"Bahia Mineração","resource":"iron_ore"},"geometry":{"type":"Point","coordinates":[-42.53905,-14.34879]},"id":"way/485000608"}
,
{"type":"Feature","properties":{"@id":"way/485000726","landuse":"quarry","operator":"Bahia Mineração","resource":"iron_ore"},"geometry":{"type":"Point","coordinates":[-42.53766,-14.36091]},"id":"way/485000726"}
,
{"type":"Feature","properties":{"@id":"way/491749539","landuse":"quarry","name":"الزويرات","name:ar":"الزويرات","name:fr":"Zouérate","resource":"iron_ore"},"geometry":{"type":"Point","coordinates":[-12.54165,22.6893]},"id":"way/491749539"}
,
{"type":"Feature","properties":{"@id":"way/583513576","landuse":"quarry","resource":"iron_ore"},"geometry":{"type":"Point","coordinates":[116.75737,-29.20712]},"id":"way/583513576"}
,
{"type":"Feature","properties":{"@id":"way/609204673","landuse":"quarry","name":"معدن شماره ۲","resource":"iron_ore"},"geometry":{"type":"Point","coordinates":[55.28702,29.10485]},"id":"way/609204673"}
,
{"type":"Feature","properties":{"@id":"way/609204682","landuse":"quarry","name":"معدن شماره ۳","resource":"iron_ore"},"geometry":{"type":"Point","coordinates":[55.32478,29.10197]},"id":"way/609204682"}
,
{"type":"Feature","properties":{"@id":"way/609204688","landuse":"quarry","name":"معدن شماره ۱","resource":"iron_ore"},"geometry":{"type":"Point","coordinates":[55.31731,29.08698]},"id":"way/609204688"}
,
{"type":"Feature","properties":{"@id":"way/609204690","landuse":"quarry","name":"معدن شماره ۴","resource":"iron_ore"},"geometry":{"type":"Point","coordinates":[55.35205,29.08547]},"id":"way/609204690"}
,
{"type":"Feature","properties":{"@id":"way/625669234","landuse":"quarry","name":"Mina de hierro el Santuario","operator":"Acerías Paz del Río","resource":"iron_ore"},"geometry":{"type":"Point","coordinates":[-73.47641,4.77991]},"id":"way/625669234"}
,
{"type":"Feature","properties":{"@id":"way/654991898","historic":"quarry","historic:period":"bronze-age","landuse":"quarry","name":"Древняя выработка","resource":"iron_ore"},"geometry":{"type":"Point","coordinates":[65.2556,41.27822]},"id":"way/654991898"}
,
{"type":"Feature","properties":{"@id":"way/660714826","landuse":"quarry","resource":"iron_ore"},"geometry":{"type":"Point","coordinates":[33.10638,35.04079]},"id":"way/660714826"}
,
{"type":"Feature","properties":{"@id":"way/660714828","landuse":"quarry","resource":"iron_ore"},"geometry":{"type":"Point","coordinates":[33.10473,35.04177]},"id":"way/660714828"}
,
{"type":"Feature","properties":{"@id":"way/660714829","landuse":"quarry","resource":"iron_ore"},"geometry":{"type":"Point","coordinates":[33.10649,35.04397]},"id":"way/660714829"}
,
{"type":"Feature","properties":{"@id":"way/666183611","landuse":"quarry","note":"mina a céu aberto","resource":"iron_ore"},"geometry":{"type":"Point","coordinates":[-44.12843,-20.10416]},"id":"way/666183611"}
,
{"type":"Feature","properties":{"@id":"way/667270877","landuse":"quarry","note":"Cava de mina","resource":"iron_ore"},"geometry":{"type":"Point","coordinates":[-43.85198,-20.20809]},"id":"way/667270877"}
,
{"type":"Feature","properties":{"@id":"way/667270882","landuse":"quarry","note":"Cava de mina","resource":"iron_ore"},"geometry":{"type":"Point","coordinates":[-43.85227,-20.19832]},"id":"way/667270882"}
,
{"type":"Feature","properties":{"@id":"way/667465000","landuse":"quarry","resource":"iron_ore","source":"Bing"},"geometry":{"type":"Point","coordinates":[-43.89705,-20.12246]},"id":"way/667465000"}
,
{"type":"Feature","properties":{"@id":"way/685007053","landuse":"quarry","resource":"iron_ore"},"geometry":{"type":"Point","coordinates":[-57.90336,-19.19691]},"id":"way/685007053"}
,
{"type":"Feature","properties":{"@id":"way/685007054","landuse":"quarry","resource":"iron_ore"},"geometry":{"type":"Point","coordinates":[-57.89519,-19.19886]},"id":"way/685007054"}
,
{"type":"Feature","properties":{"@id":"way/685007055","landuse":"quarry","resource":"iron_ore"},"geometry":{"type":"Point","coordinates":[-57.89768,-19.19483]},"id":"way/685007055"}
,
{"type":"Feature","properties":{"@id":"way/685007057","landuse":"quarry","resource":"iron_ore"},"geometry":{"type":"Point","coordinates":[-57.88579,-19.1927]},"id":"way/685007057"}
,
{"type":"Feature","properties":{"@id":"way/685674312","landuse":"quarry","resource":"iron_ore"},"geometry":{"type":"Point","coordinates":[-57.93292,-19.19443]},"id":"way/685674312"}
,
{"type":"Feature","properties":{"@id":"way/762474334","landuse":"quarry","resource":"iron_ore"},"geometry":{"type":"Point","coordinates":[76.45473,15.14216]},"id":"way/762474334"}
,
{"type":"Feature","properties":{"@id":"way/762474335","landuse":"quarry","resource":"iron_ore"},"geometry":{"type":"Point","coordinates":[76.43686,15.16544]},"id":"way/762474335"}
,
{"type":"Feature","properties":{"@id":"way/762474336","landuse":"quarry","resource":"iron_ore"},"geometry":{"type":"Point","coordinates":[76.55523,15.02016]},"id":"way/762474336"}
,
{"type":"Feature","properties":{"@id":"way/762474337","landuse":"quarry","resource":"iron_ore"},"geometry":{"type":"Point","coordinates":[76.52556,15.0304]},"id":"way/762474337"}
,
{"type":"Feature","properties":{"@id":"way/762474338","landuse":"quarry","resource":"iron_ore"},"geometry":{"type":"Point","coordinates":[76.53176,15.04484]},"id":"way/762474338"}
,
{"type":"Feature","properties":{"@id":"way/762474339","landuse":"quarry","resource":"iron_ore"},"geometry":{"type":"Point","coordinates":[76.64487,15.0673]},"id":"way/762474339"}
,
{"type":"Feature","properties":{"@id":"way/762474340","landuse":"quarry","resource":"iron_ore"},"geometry":{"type":"Point","coordinates":[76.62985,15.10454]},"id":"way/762474340"}
,
{"type":"Feature","properties":{"@id":"way/762474343","landuse":"quarry","resource":"iron_ore"},"geometry":{"type":"Point","coordinates":[76.6314,15.00681]},"id":"way/762474343"}
,
{"type":"Feature","properties":{"@id":"way/762474344","landuse":"quarry","resource":"iron_ore"},"geometry":{"type":"Point","coordinates":[76.62414,14.99912]},"id":"way/762474344"}
,
{"type":"Feature","properties":{"@id":"way/762474345","landuse":"quarry","resource":"iron_ore"},"geometry":{"type":"Point","coordinates":[76.61537,14.9924]},"id":"way/762474345"}
,
{"type":"Feature","properties":{"@id":"way/762474346","landuse":"quarry","resource":"iron_ore"},"geometry":{"type":"Point","coordinates":[76.5811,14.99207]},"id":"way/762474346"}
,
{"type":"Feature","properties":{"@id":"way/762474347","landuse":"quarry","resource":"iron_ore"},"geometry":{"type":"Point","coordinates":[76.574,15.01428]},"id":"way/762474347"}
,
{"type":"Feature","properties":{"@id":"way/762474348","landuse":"quarry","resource":"iron_ore"},"geometry":{"type":"Point","coordinates":[76.61916,15.01689]},"id":"way/762474348"}
,
{"type":"Feature","properties":{"@id":"way/762474349","landuse":"quarry","resource":"iron_ore"},"geometry":{"type":"Point","coordinates":[76.53882,15.14737]},"id":"way/762474349"}
,
{"type":"Feature","properties":{"@id":"way/762474350","landuse":"quarry","resource":"iron_ore"},"geometry":{"type":"Point","coordinates":[76.46899,15.19057]},"id":"way/762474350"}
,
{"type":"Feature","properties":{"@id":"way/762568583","landuse":"quarry","name":"Iron Ore Mines","resource":"iron_ore"},"geometry":{"type":"Point","coordinates":[76.59151,15.03229]},"id":"way/762568583"}
,
{"type":"Feature","properties":{"@id":"way/762568584","landuse":"quarry","name":"Iron Ore Mines","resource":"iron_ore"},"geometry":{"type":"Point","coordinates":[76.57333,15.0676]},"id":"way/762568584"}
,
{"type":"Feature","properties":{"@id":"way/762568585","landuse":"quarry","name":"Iron Ore Mines","resource":"iron_ore"},"geometry":{"type":"Point","coordinates":[76.60423,15.08411]},"id":"way/762568585"}
,
{"type":"Feature","properties":{"@id":"way/802911344","landuse":"quarry","name":"Kızıl Maden İşletmesi","resource":"iron_ore","source":"Maxar Premium-Luftbilder (Beta)"},"geometry":{"type":"Point","coordinates":[35.62059,37.99317]},"id":"way/802911344"}
,
{"type":"Feature","properties":{"@id":"way/802911345","landuse":"quarry","name":"Elmadağ Maden İşletmesi","resource":"iron_ore","source":"Maxar Premium-Luftbilder (Beta)"},"geometry":{"type":"Point","coordinates":[35.63495,37.98367]},"id":"way/802911345"}
,
{"type":"Feature","properties":{"@id":"way/808442395","landuse":"quarry","name":"Eastern Range","operator":"Rio Tinto","resource":"iron_ore","wikidata":"Q5330398"},"geometry":{"type":"Point","coordinates":[117.6736,-23.25691]},"id":"way/808442395"}
,
{"type":"Feature","properties":{"@id":"way/813205142","landuse":"quarry","name":"Taş Ocağı","resource":"iron_ore","source":"Maxar Premium-Luftbilder (Beta)"},"geometry":{"type":"Point","coordinates":[36.04331,38.36775]},"id":"way/813205142"}
,
{"type":"Feature","properties":{"@id":"way/813206976","landuse":"quarry","name":"Taş Ocağı","resource":"iron_ore","source":"Maxar Premium-Luftbilder (Beta)"},"geometry":{"type":"Point","coordinates":[36.01921,38.37635]},"id":"way/813206976"}
,
{"type":"Feature","properties":{"@id":"way/813206977","landuse":"quarry","name":"Taş Ocağı","resource":"iron_ore","source":"Maxar Premium-Luftbilder (Beta)"},"geometry":{"type":"Point","coordinates":[36.0326,38.37245]},"id":"way/813206977"}
,
{"type":"Feature","properties":{"@id":"way/813388245","landuse":"quarry","resource":"iron_ore","source":"Maxar Premium-Luftbilder (Beta)"},"geometry":{"type":"Point","coordinates":[36.83434,38.93441]},"id":"way/813388245"}
,
{"type":"Feature","properties":{"@id":"way/813388246","landuse":"quarry","operator":"Demir Export","resource":"iron_ore","source":"Maxar Premium-Luftbilder (Beta)"},"geometry":{"type":"Point","coordinates":[36.83756,38.9366]},"id":"way/813388246"}
,
{"type":"Feature","properties":{"@id":"way/813599356","landuse":"quarry","name":"Uzunpınar Demir İşletmesi","operator":"Demir Export","resource":"iron_ore","source":"Maxar Premium-Luftbilder (Beta)"},"geometry":{"type":"Point","coordinates":[36.84094,38.94414]},"id":"way/813599356"}
,
{"type":"Feature","properties":{"@id":"way/813637085","landuse":"quarry","name":"Taş Ocağı","resource":"iron_ore","source":"Maxar Premium-Luftbilder (Beta)"},"geometry":{"type":"Point","coordinates":[35.6373,37.95719]},"id":"way/813637085"}
,
{"type":"Feature","properties":{"@id":"way/830971616","landuse":"quarry","name":"Minas el Pilar","resource":"iron_ore"},"geometry":{"type":"Point","coordinates":[-4.61383,43.3441]},"id":"way/830971616"}
,
{"type":"Feature","properties":{"@id":"way/844349684","email":"ci.minajayona@juntaex.es","historic":"mine","image":"http://fuentedelarco.org/turismo/mina-la-jayona/logo.jpg","landuse":"quarry","name":"Monumento Natural Mina La Jayona","phone":"+34 667 756 600","resource":"iron_ore","unused":"yes","url":"http://fuentedelarco.org/turismo/mina-la-jayona/","website":"www.fuentedelarco.org/turismo/mina-la-jayona/","wikipedia":"es:Mina La Jayona"},"geometry":{"type":"Point","coordinates":[-5.92971,38.11936]},"id":"way/844349684"}
,
{"type":"Feature","properties":{"@id":"way/848613382","abandoned":"yes","disused":"yes","landuse":"quarry","man_made":"embankment","note":"Tagebau vermutlich zu Grube Ferdinand gehörig. Abgezäuntes Gebiet mit reichlich Eisenerz Resten.","resource":"iron_ore"},"geometry":{"type":"Point","coordinates":[8.42397,50.51631]},"id":"way/848613382"}
,
{"type":"Feature","properties":{"@id":"way/848613383","abandoned":"yes","disused":"yes","landuse":"quarry","man_made":"embankment","name":"Tagebau Grube Ferdinand","resource":"iron_ore"},"geometry":{"type":"Point","coordinates":[8.4284,50.51788]},"id":"way/848613383"}
,
{"type":"Feature","properties":{"@id":"way/848615530","abandoned":"yes","disused":"yes","landuse":"quarry","man_made":"embankment","resource":"iron_ore"},"geometry":{"type":"Point","coordinates":[8.42149,50.51637]},"id":"way/848615530"}
,
{"type":"Feature","properties":{"@id":"way/848615531","abandoned":"yes","disused":"yes","landuse":"quarry","man_made":"embankment","resource":"iron_ore"},"geometry":{"type":"Point","coordinates":[8.42043,50.51638]},"id":"way/848615531"}
,
{"type":"Feature","properties":{"@id":"way/848626385","disused":"yes","landuse":"quarry","man_made":"embankment","name":"Tagebau Grube Amanda","resource":"iron_ore"},"geometry":{"type":"Point","coordinates":[8.46896,50.52936]},"id":"way/848626385"}
,
{"type":"Feature","properties":{"@id":"way/849946467","landuse":"quarry","name":"معدن سنگ آهن باغات","operator":"محمود نوروززاده دزفولی","resource":"iron_ore"},"geometry":{"type":"Point","coordinates":[55.97221,28.7868]},"id":"way/849946467"}
,
{"type":"Feature","properties":{"@id":"way/863571757","landuse":"quarry","name":"Nya alliansengruvan","operator":"Luossavaara-Kiirunavaara Aktiebolag","resource":"iron_ore","source":"bing"},"geometry":{"type":"Point","coordinates":[20.6926,67.18982]},"id":"way/863571757"}
,
{"type":"Feature","properties":{"@id":"way/863571758","landuse":"quarry","name":"Koskullskullegruvan","operator":"Luossavaara-Kiirunavaara Aktiebolag","resource":"iron_ore","source":"bing"},"geometry":{"type":"Point","coordinates":[20.71886,67.18587]},"id":"way/863571758"}
,
{"type":"Feature","properties":{"@id":"way/863571759","landuse":"quarry","name":"Tingvallskullegruvan","operator":"Luossavaara-Kiirunavaara Aktiebolag","resource":"iron_ore","source":"bing"},"geometry":{"type":"Point","coordinates":[20.67468,67.1938]},"id":"way/863571759"}
,
{"type":"Feature","properties":{"@id":"way/863571760","landuse":"quarry","name":"Sofiagruvan","operator":"Luossavaara-Kiirunavaara Aktiebolag","resource":"iron_ore","source":"bing"},"geometry":{"type":"Point","coordinates":[20.66651,67.19266]},"id":"way/863571760"}
,
{"type":"Feature","properties":{"@id":"way/863571761","landuse":"quarry","operator":"Luossavaara-Kiirunavaara Aktiebolag","resource":"iron_ore","source":"bing"},"geometry":{"type":"Point","coordinates":[20.6561,67.19227]},"id":"way/863571761"}
,
{"type":"Feature","properties":{"@id":"way/863571762","landuse":"quarry","name":"Josefinagruvan","operator":"Luossavaara-Kiirunavaara Aktiebolag","resource":"iron_ore","source":"bing"},"geometry":{"type":"Point","coordinates":[20.65326,67.18775]},"id":"way/863571762"}
,
{"type":"Feature","properties":{"@id":"way/863571763","disused":"yes","landuse":"quarry","name":"Bergmästargruvan","operator":"Luossavaara-Kiirunavaara Aktiebolag","resource":"iron_ore"},"geometry":{"type":"Point","coordinates":[20.58525,67.1761]},"id":"way/863571763"}
,
{"type":"Feature","properties":{"@id":"way/874877263","landuse":"quarry","name":"Mina Los Colorados","operator":"CMP","resource":"iron_ore"},"geometry":{"type":"Point","coordinates":[-70.81604,-28.30178]},"id":"way/874877263"}]}
